start=new Date('2022-06-25T00:00:00.000Z').valueOf();
sats=[{"MEAN_ANOMALY":"285.0405","NORAD_CAT_ID":"45061","CLASSIFICATION_TYPE":"U","OBJECT_ID":"2020-006T","BSTAR":"0.00005427900000","ELEMENT_SET_NO":"999","COUNTRY_CODE":"US","APOAPSIS":"548.283","REF_FRAME":"TEME","MEAN_MOTION_DDOT":"0.0000000000000","GP_ID":"206784975","TLE_LINE2":"2 45061  53.0542 244.0624 0001509  75.0751 285.0405 15.06392181132410","SEMIMAJOR_AXIS":"6925.373","CENTER_NAME":"EARTH","FILE":"3501798","ARG_OF_PERICENTER":"75.0751","PERIAPSIS":"546.192","EPOCH":"2022-06-24T21:22:43.474080","RCS_SIZE":"LARGE","MEAN_MOTION_DOT":"0.00000527","TIME_SYSTEM":"UTC","LAUNCH_DATE":"2020-01-29","TLE_LINE1":"1 45061U 20006T   22175.89078095  .00000527  00000-0  54279-4 0  9992","PERIOD":"95.593","RA_OF_ASC_NODE":"244.0624","MEAN_ELEMENT_THEORY":"SGP4","INCLINATION":"53.0542","REV_AT_EPOCH":"13241","DECAY_DATE":null,"EPHEMERIS_TYPE":"0","OBJECT_NAME":"STARLINK-1169","SITE":"AFETR","MEAN_MOTION":"15.06392181","ECCENTRICITY":"0.00015090","OBJECT_TYPE":"PAYLOAD"},{"REF_FRAME":"TEME","TLE_LINE2":"2 45062  53.0538 245.0174 0001480  74.0350 286.0801 15.06396337132383","SEMIMAJOR_AXIS":"6925.360","MEAN_MOTION_DDOT":"0.0000000000000","GP_ID":"206785225","CENTER_NAME":"EARTH","MEAN_ANOMALY":"286.0801","NORAD_CAT_ID":"45062","CLASSIFICATION_TYPE":"U","COUNTRY_CODE":"US","APOAPSIS":"548.250","OBJECT_ID":"2020-006U","BSTAR":"0.00002677200000","ELEMENT_SET_NO":"999","OBJECT_NAME":"STARLINK-1171","DECAY_DATE":null,"EPHEMERIS_TYPE":"0","SITE":"AFETR","ECCENTRICITY":"0.00014800","MEAN_MOTION":"15.06396337","OBJECT_TYPE":"PAYLOAD","ARG_OF_PERICENTER":"74.0350","PERIAPSIS":"546.200","FILE":"3501798","RCS_SIZE":"LARGE","EPOCH":"2022-06-24T16:14:52.651392","TIME_SYSTEM":"UTC","LAUNCH_DATE":"2020-01-29","MEAN_MOTION_DOT":"0.00000117","INCLINATION":"53.0538","REV_AT_EPOCH":"13238","TLE_LINE1":"1 45062U 20006U   22175.67699828  .00000117  00000-0  26772-4 0  9994","RA_OF_ASC_NODE":"245.0174","PERIOD":"95.592","MEAN_ELEMENT_THEORY":"SGP4"},{"CENTER_NAME":"EARTH","REF_FRAME":"TEME","MEAN_MOTION_DDOT":"0.0000000000000","GP_ID":"206754818","TLE_LINE2":"2 45064  53.0544 227.3531 0001551  66.9012 293.2141 15.06394942132585","SEMIMAJOR_AXIS":"6925.364","CLASSIFICATION_TYPE":"U","OBJECT_ID":"2020-006W","BSTAR":"0.00003247700000","ELEMENT_SET_NO":"999","COUNTRY_CODE":"US","APOAPSIS":"548.303","MEAN_ANOMALY":"293.2141","NORAD_CAT_ID":"45064","MEAN_MOTION":"15.06394942","ECCENTRICITY":"0.00015510","OBJECT_TYPE":"PAYLOAD","DECAY_DATE":null,"EPHEMERIS_TYPE":"0","OBJECT_NAME":"STARLINK-1133","SITE":"AFETR","MEAN_MOTION_DOT":"0.00000202","LAUNCH_DATE":"2020-01-29","TIME_SYSTEM":"UTC","TLE_LINE1":"1 45064U 20006W   22175.15911441  .00000202  00000-0  32477-4 0  9991","MEAN_ELEMENT_THEORY":"SGP4","PERIOD":"95.592","RA_OF_ASC_NODE":"227.3531","INCLINATION":"53.0544","REV_AT_EPOCH":"13258","FILE":"3501501","ARG_OF_PERICENTER":"66.9012","PERIAPSIS":"546.155","EPOCH":"2022-06-24T03:49:07.485024","RCS_SIZE":"LARGE"},{"PERIOD":"95.593","MEAN_ELEMENT_THEORY":"SGP4","RA_OF_ASC_NODE":"224.3545","TLE_LINE1":"1 45065U 20006X   22175.82628225 -.00000178  00000-0  69243-5 0  9996","REV_AT_EPOCH":"13268","INCLINATION":"53.0539","MEAN_MOTION_DOT":"-0.00000178","TIME_SYSTEM":"UTC","LAUNCH_DATE":"2020-01-29","EPOCH":"2022-06-24T19:49:50.786400","RCS_SIZE":"LARGE","FILE":"3501798","PERIAPSIS":"546.273","ARG_OF_PERICENTER":"70.8348","OBJECT_TYPE":"PAYLOAD","MEAN_MOTION":"15.06384890","ECCENTRICITY":"0.00014250","SITE":"AFETR","EPHEMERIS_TYPE":"0","DECAY_DATE":null,"OBJECT_NAME":"STARLINK-1139","BSTAR":"0.00000692430000","ELEMENT_SET_NO":"999","OBJECT_ID":"2020-006X","APOAPSIS":"548.247","COUNTRY_CODE":"US","CLASSIFICATION_TYPE":"U","NORAD_CAT_ID":"45065","MEAN_ANOMALY":"289.2795","CENTER_NAME":"EARTH","GP_ID":"206785727","MEAN_MOTION_DDOT":"0.0000000000000","SEMIMAJOR_AXIS":"6925.395","TLE_LINE2":"2 45065  53.0539 224.3545 0001425  70.8348 289.2795 15.06384890132680","REF_FRAME":"TEME"},{"ARG_OF_PERICENTER":"68.0119","PERIAPSIS":"546.153","FILE":"3501798","RCS_SIZE":"LARGE","EPOCH":"2022-06-24T20:48:13.929696","LAUNCH_DATE":"2020-01-29","TIME_SYSTEM":"UTC","MEAN_MOTION_DOT":"-0.00000336","INCLINATION":"53.0532","REV_AT_EPOCH":"13268","TLE_LINE1":"1 45066U 20006Y   22175.86682789 -.00000336  00000-0 -36477-5 0  9996","PERIOD":"95.593","MEAN_ELEMENT_THEORY":"SGP4","RA_OF_ASC_NODE":"224.1636","OBJECT_NAME":"STARLINK-1145","DECAY_DATE":null,"EPHEMERIS_TYPE":"0","SITE":"AFETR","ECCENTRICITY":"0.00016110","MEAN_MOTION":"15.06381871","OBJECT_TYPE":"PAYLOAD","MEAN_ANOMALY":"292.1041","NORAD_CAT_ID":"45066","CLASSIFICATION_TYPE":"U","COUNTRY_CODE":"US","APOAPSIS":"548.385","OBJECT_ID":"2020-006Y","BSTAR":"-0.00000364770000","ELEMENT_SET_NO":"999","REF_FRAME":"TEME","TLE_LINE2":"2 45066  53.0532 224.1636 0001611  68.0119 292.1041 15.06381871132688","SEMIMAJOR_AXIS":"6925.404","MEAN_MOTION_DDOT":"0.0000000000000","GP_ID":"206784475","CENTER_NAME":"EARTH"},{"TIME_SYSTEM":"UTC","LAUNCH_DATE":"2020-01-29","MEAN_MOTION_DOT":"-0.00001324","REV_AT_EPOCH":"13262","INCLINATION":"53.0558","PERIOD":"95.593","MEAN_ELEMENT_THEORY":"SGP4","RA_OF_ASC_NODE":"226.1835","TLE_LINE1":"1 45067U 20006Z   22175.41713652 -.00001324  00000-0 -70031-4 0  9993","PERIAPSIS":"546.226","ARG_OF_PERICENTER":"79.2726","FILE":"3501501","RCS_SIZE":"LARGE","EPOCH":"2022-06-24T10:00:40.595328","ECCENTRICITY":"0.00014540","MEAN_MOTION":"15.06393777","OBJECT_TYPE":"PAYLOAD","OBJECT_NAME":"STARLINK-1150","EPHEMERIS_TYPE":"0","DECAY_DATE":null,"SITE":"AFETR","CLASSIFICATION_TYPE":"U","APOAPSIS":"548.240","COUNTRY_CODE":"US","ELEMENT_SET_NO":"999","BSTAR":"-0.00007003100000","OBJECT_ID":"2020-006Z","MEAN_ANOMALY":"280.8426","NORAD_CAT_ID":"45067","CENTER_NAME":"EARTH","REF_FRAME":"TEME","SEMIMAJOR_AXIS":"6925.368","TLE_LINE2":"2 45067  53.0558 226.1835 0001454  79.2726 280.8426 15.06393777132626","GP_ID":"206754564","MEAN_MOTION_DDOT":"0.0000000000000"},{"ECCENTRICITY":"0.00015280","MEAN_MOTION":"15.06399799","OBJECT_TYPE":"PAYLOAD","OBJECT_NAME":"STARLINK-1161","EPHEMERIS_TYPE":"0","DECAY_DATE":null,"SITE":"AFETR","TIME_SYSTEM":"UTC","LAUNCH_DATE":"2020-01-29","MEAN_MOTION_DOT":"0.00000703","REV_AT_EPOCH":"13268","INCLINATION":"53.0562","PERIOD":"95.592","RA_OF_ASC_NODE":"224.0934","MEAN_ELEMENT_THEORY":"SGP4","TLE_LINE1":"1 45068U 20006AA  22175.85480218  .00000703  00000-0  66104-4 0  9995","PERIAPSIS":"546.156","ARG_OF_PERICENTER":"80.5094","FILE":"3501798","RCS_SIZE":"LARGE","EPOCH":"2022-06-24T20:30:54.908352","CENTER_NAME":"EARTH","REF_FRAME":"TEME","SEMIMAJOR_AXIS":"6925.349","TLE_LINE2":"2 45068  53.0562 224.0934 0001528  80.5094 279.6067 15.06399799132687","GP_ID":"206785977","MEAN_MOTION_DDOT":"0.0000000000000","CLASSIFICATION_TYPE":"U","APOAPSIS":"548.272","COUNTRY_CODE":"US","BSTAR":"0.00006610400000","ELEMENT_SET_NO":"999","OBJECT_ID":"2020-006AA","MEAN_ANOMALY":"279.6067","NORAD_CAT_ID":"45068"},{"RCS_SIZE":"LARGE","EPOCH":"2022-06-24T20:21:41.234688","ARG_OF_PERICENTER":"62.7783","PERIAPSIS":"546.341","FILE":"3501798","INCLINATION":"53.0528","REV_AT_EPOCH":"13268","TLE_LINE1":"1 45071U 20006AD  22175.84839392 -.00000538  00000-0 -17227-4 0  9999","PERIOD":"95.593","MEAN_ELEMENT_THEORY":"SGP4","RA_OF_ASC_NODE":"224.2572","TIME_SYSTEM":"UTC","LAUNCH_DATE":"2020-01-29","MEAN_MOTION_DOT":"-0.00000538","SITE":"AFETR","OBJECT_NAME":"STARLINK-1167","DECAY_DATE":null,"EPHEMERIS_TYPE":"0","OBJECT_TYPE":"PAYLOAD","ECCENTRICITY":"0.00013140","MEAN_MOTION":"15.06387926","NORAD_CAT_ID":"45071","MEAN_ANOMALY":"297.3340","COUNTRY_CODE":"US","APOAPSIS":"548.161","OBJECT_ID":"2020-006AD","BSTAR":"-0.00001722700000","ELEMENT_SET_NO":"999","CLASSIFICATION_TYPE":"U","TLE_LINE2":"2 45071  53.0528 224.2572 0001314  62.7783 297.3340 15.06387926132683","SEMIMAJOR_AXIS":"6925.386","MEAN_MOTION_DDOT":"0.0000000000000","GP_ID":"206786228","REF_FRAME":"TEME","CENTER_NAME":"EARTH"},{"CENTER_NAME":"EARTH","TLE_LINE2":"2 45072  53.0550 224.2400 0001467  64.7686 295.3455 15.06402922132681","SEMIMAJOR_AXIS":"6925.340","MEAN_MOTION_DDOT":"0.0000000000000","GP_ID":"206784976","REF_FRAME":"TEME","COUNTRY_CODE":"US","APOAPSIS":"548.221","OBJECT_ID":"2020-006AE","BSTAR":"0.00003996300000","ELEMENT_SET_NO":"999","CLASSIFICATION_TYPE":"U","NORAD_CAT_ID":"45072","MEAN_ANOMALY":"295.3455","OBJECT_TYPE":"PAYLOAD","ECCENTRICITY":"0.00014670","MEAN_MOTION":"15.06402922","SITE":"AFETR","OBJECT_NAME":"STARLINK-1168","DECAY_DATE":null,"EPHEMERIS_TYPE":"0","INCLINATION":"53.0550","REV_AT_EPOCH":"13268","TLE_LINE1":"1 45072U 20006AE  22175.85207958  .00000314  00000-0  39963-4 0  9999","PERIOD":"95.592","MEAN_ELEMENT_THEORY":"SGP4","RA_OF_ASC_NODE":"224.2400","LAUNCH_DATE":"2020-01-29","TIME_SYSTEM":"UTC","MEAN_MOTION_DOT":"0.00000314","RCS_SIZE":"LARGE","EPOCH":"2022-06-24T20:26:59.675712","ARG_OF_PERICENTER":"64.7686","PERIAPSIS":"546.189","FILE":"3501798"},{"MEAN_MOTION_DOT":"0.00015274","LAUNCH_DATE":"2020-01-29","TIME_SYSTEM":"UTC","MEAN_ELEMENT_THEORY":"SGP4","PERIOD":"95.593","RA_OF_ASC_NODE":"226.1924","TLE_LINE1":"1 45073U 20006AF  22175.41347073  .00015274  00000-0  10426-2 0  9997","REV_AT_EPOCH":"13261","INCLINATION":"53.0532","FILE":"3501501","PERIAPSIS":"545.689","ARG_OF_PERICENTER":"51.6314","EPOCH":"2022-06-24T09:55:23.871072","RCS_SIZE":"LARGE","MEAN_MOTION":"15.06379634","ECCENTRICITY":"0.00022920","OBJECT_TYPE":"PAYLOAD","EPHEMERIS_TYPE":"0","DECAY_DATE":null,"OBJECT_NAME":"STARLINK-1170","SITE":"AFETR","CLASSIFICATION_TYPE":"U","BSTAR":"0.00104260000000","ELEMENT_SET_NO":"999","OBJECT_ID":"2020-006AF","APOAPSIS":"548.863","COUNTRY_CODE":"US","MEAN_ANOMALY":"308.4880","NORAD_CAT_ID":"45073","CENTER_NAME":"EARTH","REF_FRAME":"TEME","GP_ID":"206754065","MEAN_MOTION_DDOT":"0.0000000000000","SEMIMAJOR_AXIS":"6925.411","TLE_LINE2":"2 45073  53.0532 226.1924 0002292  51.6314 308.4880 15.06379634132618"}];
